ONEWEB-0702             
1 61608U 24188Q   26005.12592750  .00000440  00000+0  12052-2 0  9997
2 61608  87.8813  53.4352 0000896 129.1124 231.0084 13.11417212 63115
ONEWEB-0704             
1 61609U 24188R   26005.12251551 -.00000656  00000+0 -19164-2 0  9991
2 61609  87.8807  68.7373 0001107 132.5522 227.5699 13.10372566 61938
ONEWEB-0705             
1 61610U 24188S   26005.12749954 -.00000582  00000+0 -17047-2 0  9998
2 61610  87.8798  68.7558 0002151 135.0650 225.0652 13.10374658 54101
ONEWEB-0706             
1 61611U 24188T   26005.18892187 -.00000421  00000+0 -12428-2 0  9992
2 61611  87.8780  68.7622 0001449 123.3671 236.7596 13.10370729 62039
ONEWEB-0707             
1 61612U 24188U   26005.19555746 -.00000506  00000+0 -14866-2 0  9993
2 61612  87.8797  68.7416 0001426 121.3037 238.8230 13.10371898 61976
ONEWEB-0708             
1 61613U 24188V   26005.13747430 -.00000073  00000+0 -24508-3 0  9995
2 61613  87.8789  68.7855 0002145 115.9049 244.2300 13.10376294 61947
