[{"OBJECT_NAME":"ONEWEB-0702","OBJECT_ID":"2024-188Q","EPOCH":"2026-01-05T03:01:20.136000","MEAN_MOTION":13.11417212,"ECCENTRICITY":8.963e-5,"INCLINATION":87.8813,"RA_OF_ASC_NODE":53.4352,"ARG_OF_PERICENTER":129.1124,"MEAN_ANOMALY":231.0084,"EPHEMERIS_TYPE":0,"CLASSIFICATION_TYPE":"U","NORAD_CAT_ID":61608,"ELEMENT_SET_NO":999,"REV_AT_EPOCH":6311,"BSTAR":0.0012052268,"MEAN_MOTION_DOT":4.4e-6,"MEAN_MOTION_DDOT":0},{"OBJECT_NAME":"ONEWEB-0704","OBJECT_ID":"2024-188R","EPOCH":"2026-01-05T02:56:25.340064","MEAN_MOTION":13.10372566,"ECCENTRICITY":0.00011071,"INCLINATION":87.8807,"RA_OF_ASC_NODE":68.7373,"ARG_OF_PERICENTER":132.5522,"MEAN_ANOMALY":227.5699,"EPHEMERIS_TYPE":0,"CLASSIFICATION_TYPE":"U","NORAD_CAT_ID":61609,"ELEMENT_SET_NO":999,"REV_AT_EPOCH":6193,"BSTAR":-0.0019164082,"MEAN_MOTION_DOT":-6.56e-6,"MEAN_MOTION_DDOT":0},{"OBJECT_NAME":"ONEWEB-0705","OBJECT_ID":"2024-188S","EPOCH":"2026-01-05T03:03:35.960256","MEAN_MOTION":13.10374658,"ECCENTRICITY":0.00021514,"INCLINATION":87.8798,"RA_OF_ASC_NODE":68.7558,"ARG_OF_PERICENTER":135.065,"MEAN_ANOMALY":225.0652,"EPHEMERIS_TYPE":0,"CLASSIFICATION_TYPE":"U","NORAD_CAT_ID":61610,"ELEMENT_SET_NO":999,"REV_AT_EPOCH":5410,"BSTAR":-0.0017046647,"MEAN_MOTION_DOT":-5.82e-6,"MEAN_MOTION_DDOT":0},{"OBJECT_NAME":"ONEWEB-0706","OBJECT_ID":"2024-188T","EPOCH":"2026-01-05T04:32:02.849568","MEAN_MOTION":13.10370729,"ECCENTRICITY":0.0001449,"INCLINATION":87.878,"RA_OF_ASC_NODE":68.7622,"ARG_OF_PERICENTER":123.3671,"MEAN_ANOMALY":236.7596,"EPHEMERIS_TYPE":0,"CLASSIFICATION_TYPE":"U","NORAD_CAT_ID":61611,"ELEMENT_SET_NO":999,"REV_AT_EPOCH":6203,"BSTAR":-0.0012428008,"MEAN_MOTION_DOT":-4.21e-6,"MEAN_MOTION_DDOT":0},{"OBJECT_NAME":"ONEWEB-0707","OBJECT_ID":"2024-188U","EPOCH":"2026-01-05T04:41:36.164544","MEAN_MOTION":13.10371898,"ECCENTRICITY":0.00014269,"INCLINATION":87.8797,"RA_OF_ASC_NODE":68.7416,"ARG_OF_PERICENTER":121.3037,"MEAN_ANOMALY":238.823,"EPHEMERIS_TYPE":0,"CLASSIFICATION_TYPE":"U","NORAD_CAT_ID":61612,"ELEMENT_SET_NO":999,"REV_AT_EPOCH":6197,"BSTAR":-0.0014866119,"MEAN_MOTION_DOT":-5.06e-6,"MEAN_MOTION_DDOT":0},{"OBJECT_NAME":"ONEWEB-0708","OBJECT_ID":"2024-188V","EPOCH":"2026-01-05T03:17:57.779520","MEAN_MOTION":13.10376294,"ECCENTRICITY":0.00021454,"INCLINATION":87.8789,"RA_OF_ASC_NODE":68.7855,"ARG_OF_PERICENTER":115.9049,"MEAN_ANOMALY":244.23,"EPHEMERIS_TYPE":0,"CLASSIFICATION_TYPE":"U","NORAD_CAT_ID":61613,"ELEMENT_SET_NO":999,"REV_AT_EPOCH":6194,"BSTAR":-0.0002450785,"MEAN_MOTION_DOT":-7.3e-7,"MEAN_MOTION_DDOT":0}]
